
# Worst residual: 100.91 km
# MJD 60333.000000 (2024 Jan 24  0:00)
A11649f = A115VyB = A115oNJ
1 79926U 24999ZZP 24024.49919926  .00000000  00000-0  00000-0 0 23184
2 79926 010.2358 035.2197 3271866 344.1274 097.2163 00.91371228    00

# Worst residual: 151.16 km
# MJD 60334.000000 (2024 Jan 25  0:00)
A11649f = A115VyB = A115oNJ
1 79926U 24999ZZP 24025.49919926  .00000000  00000-0  00000-0 0 23185
2 79926 010.2154 035.2736 3351020 344.3934 066.7872 00.91469189    01

# Worst residual: 142.41 km
# MJD 60335.000000 (2024 Jan 26  0:00)
A11649f = A115VyB = A115oNJ
1 79926U 24999ZZP 24026.49919926  .00000000  00000-0  00000-0 0 23186
2 79926 010.1667 035.3055 3424185 344.6979 036.2992 00.91611980    02

# Worst residual: 140.49 km
# MJD 60336.000000 (2024 Jan 27  0:00)
A11649f = A115VyB = A115oNJ
1 79926U 24999ZZP 24027.49919926  .00000000  00000-0  00000-0 0 23187
2 79926 010.1512 035.2646 3496222 345.1831 005.6223 00.91740925    09

# Worst residual: 101.37 km
# MJD 60337.000000 (2024 Jan 28  0:00)
A11649f = A115VyB = A115oNJ
1 79926U 24999ZZP 24028.49919926  .00000000  00000-0  00000-0 0 23188
2 79926 010.1248 035.3451 3569710 345.6241 334.8216 00.91862113    06

# Worst residual: 68.71 km
# MJD 60338.000000 (2024 Jan 29  0:00)
A11649f = A115VyB = A115oNJ
1 79926U 24999ZZP 24029.49919926  .00000000  00000-0  00000-0 0 23189
2 79926 010.0942 035.4063 3647700 346.0366 304.0369 00.91900261    00

# Worst residual: 98.04 km
# MJD 60339.000000 (2024 Jan 30  0:00)
A11649f = A115VyB = A115oNJ
1 79926U 24999ZZP 24030.49919926  .00000000  00000-0  00000-0 0 23181
2 79926 010.0700 035.4429 3725985 346.3933 273.3704 00.91866889    01

# Worst residual: 125.76 km
# MJD 60340.000000 (2024 Jan 31  0:00)
A11649f = A115VyB = A115oNJ
1 79926U 24999ZZP 24031.49919926  .00000000  00000-0  00000-0 0 23182
2 79926 010.0460 035.4680 3797465 346.6879 242.8453 00.91771536    03

# Worst residual: 116.74 km
# MJD 60341.000000 (2024 Feb  1  0:00)
A11649f = A115VyB = A115oNJ
1 79926U 24999ZZP 24032.49919926  .00000000  00000-0  00000-0 0 23183
2 79926 010.0204 035.4880 3859291 347.0263 212.3560 00.91635023    00

# Worst residual: 86.47 km
# MJD 60342.000000 (2024 Feb  2  0:00)
A11649f = A115VyB = A115oNJ
1 79926U 24999ZZP 24033.49919926  .00000000  00000-0  00000-0 0 23184
2 79926 009.9947 035.5062 3920208 347.4785 181.8374 00.91514587    08

# Worst residual: 91.74 km
# MJD 60343.000000 (2024 Feb  3  0:00)
A11649f = A115VyB = A115oNJ
1 79926U 24999ZZP 24034.49919926  .00000000  00000-0  00000-0 0 23185
2 79926 009.9698 035.5223 3986690 347.9924 151.3528 00.91449555    02

# Worst residual: 53.05 km
# MJD 60344.000000 (2024 Feb  4  0:00)
A11649f = A115VyB = A115oNJ
1 79926U 24999ZZP 24035.49919926  .00000000  00000-0  00000-0 0 23186
2 79926 009.9480 035.5327 4059877 348.4669 121.0160 00.91460616    04

# Worst residual: 114.37 km
# MJD 60345.000000 (2024 Feb  5  0:00)
A11649f = A115VyB = A115oNJ
1 79926U 24999ZZP 24036.49919926  .00000000  00000-0  00000-0 0 23187
2 79926 009.9287 035.5127 4133808 348.9034 090.8291 00.91532666    08

# Worst residual: 137.77 km
# MJD 60346.000000 (2024 Feb  6  0:00)
A11649f = A115VyB = A115oNJ
1 79926U 24999ZZP 24037.49919926  .00000000  00000-0  00000-0 0 23188
2 79926 009.8960 035.5730 4203950 349.1894 060.7724 00.91673335    04

# Worst residual: 142.57 km
# MJD 60347.000000 (2024 Feb  7  0:00)
A11649f = A115VyB = A115oNJ
1 79926U 24999ZZP 24038.49919926  .00000000  00000-0  00000-0 0 23189
2 79926 009.8727 035.5504 4269994 349.6255 030.6779 00.91825051    00

# Worst residual: 136.48 km
# MJD 60348.000000 (2024 Feb  8  0:00)
A11649f = A115VyB = A115oNJ
1 79926U 24999ZZP 24039.49919926  .00000000  00000-0  00000-0 0 23180
2 79926 009.8474 035.5539 4335104 350.0858 000.5490 00.91972660    04

# Worst residual: 89.25 km
# MJD 60349.000000 (2024 Feb  9  0:00)
A11649f = A115VyB = A115oNJ
1 79926U 24999ZZP 24040.49919926  .00000000  00000-0  00000-0 0 23182
2 79926 009.8252 035.5812 4403767 350.5421 330.4174 00.92075013    05

# Worst residual: 99.89 km
# MJD 60350.000000 (2024 Feb 10  0:00)
A11649f = A115VyB = A115oNJ
1 79926U 24999ZZP 24041.49919926  .00000000  00000-0  00000-0 0 23183
2 79926 009.7992 035.6060 4474979 350.9833 300.3822 00.92103939    00

# Worst residual: 118.29 km
# MJD 60351.000000 (2024 Feb 11  0:00)
A11649f = A115VyB = A115oNJ
1 79926U 24999ZZP 24042.49919926  .00000000  00000-0  00000-0 0 23184
2 79926 009.7794 035.6171 4544551 351.3642 270.5361 00.92070795    09

# Worst residual: 113.52 km
# MJD 60352.000000 (2024 Feb 12  0:00)
A11649f = A115VyB = A115oNJ
1 79926U 24999ZZP 24043.49919926  .00000000  00000-0  00000-0 0 23185
2 79926 009.7604 035.6199 4606960 351.7121 240.8708 00.91990365    06

# Worst residual: 112.65 km
# MJD 60353.000000 (2024 Feb 13  0:00)
A11649f = A115VyB = A115oNJ
1 79926U 24999ZZP 24044.49919926  .00000000  00000-0  00000-0 0 23186
2 79926 009.7401 035.6186 4660358 352.1074 211.2937 00.91877448    02

# Worst residual: 84.79 km
# MJD 60354.000000 (2024 Feb 14  0:00)
A11649f = A115VyB = A115oNJ
1 79926U 24999ZZP 24045.49919926  .00000000  00000-0  00000-0 0 23187
2 79926 009.7217 035.6374 4715172 352.5661 181.7700 00.91795633    01
